[{"OBJECT_NAME":"STARLINK-32775","OBJECT_ID":"2025-014H","EPOCH":"2026-03-09T06:26:42.777888","MEAN_MOTION":15.27569146,"ECCENTRICITY":0.00017354,"INCLINATION":42.9992,"RA_OF_ASC_NODE":156.7088,"ARG_OF_PERICENTER":279.0872,"MEAN_ANOMALY":80.9783,"EPHEMERIS_TYPE":0,"CLASSIFICATION_TYPE":"U","NORAD_CAT_ID":62742,"ELEMENT_SET_NO":999,"REV_AT_EPOCH":6319,"BSTAR":0.00094345853,"MEAN_MOTION_DOT":0.00025782,"MEAN_MOTION_DDOT":0},{"OBJECT_NAME":"KUIPER-00213","OBJECT_ID":"2026-030P","EPOCH":"2026-03-09T22:00:01.999584","MEAN_MOTION":15.32626943,"ECCENTRICITY":0.00152813,"INCLINATION":51.8816,"RA_OF_ASC_NODE":218.5142,"ARG_OF_PERICENTER":64.2462,"MEAN_ANOMALY":206.8369,"EPHEMERIS_TYPE":0,"CLASSIFICATION_TYPE":"U","NORAD_CAT_ID":67777,"ELEMENT_SET_NO":999,"REV_AT_EPOCH":502,"BSTAR":0.0016072376,"MEAN_MOTION_DOT":0.00051551,"MEAN_MOTION_DDOT":0}]
